{"type": "FeatureCollection", "features": [ {"type": "Feature", "properties": {"norad_id": 66829, "name": "STARLINK-36084", "group": "last-30-days", "lat": -53.77684188854728, "lon": 10.696077986786909, "alt_km": 414.4678672306718, "timestamp": "2025-12-26T10:30:48.975295+00:00", "meta": {"OBJECT_NAME": "STARLINK-36084", "OBJECT_ID": "2025-280J", "EPOCH": "2025-12-26T03:18:06.233760", "MEAN_MOTION": 15.52535182, "ECCENTRICITY": 0.0002986, "INCLINATION": 70.0006, "RA_OF_ASC_NODE": 161.7025, "ARG_OF_PERICENTER": 296.5412, "MEAN_ANOMALY": 63.5468, "EPHEMERIS_TYPE": 0, "CLASSIFICATION_TYPE": "U", "NORAD_CAT_ID": 66829, "ELEMENT_SET_NO": 999, "REV_AT_EPOCH": 501, "BSTAR": 0.0014373, "MEAN_MOTION_DOT": 0.00089307, "MEAN_MOTION_DDOT": 0}, "tle": {"line1": "1 66829U 25280J   25360.13757215  .00089307  00000+0  14373-2 0  9991", "line2": "2 66829  70.0006 161.7025 0002986 296.5412  63.5468 15.52535182  5017"}}, "geometry": {"type": "Point", "coordinates": [10.696077986786909, -53.77684188854728]}}, {"type": "Feature", "properties": {"norad_id": 66830, "name": "STARLINK-35881", "group": "last-30-days", "lat": -56.858782990109894, "lon": 14.781192825213205, "alt_km": 413.68904223431673, "timestamp": "2025-12-26T10:30:48.975308+00:00", "meta": {"OBJECT_NAME": "STARLINK-35881", "OBJECT_ID": "2025-280K", "EPOCH": "2025-12-26T03:17:06.675648", "MEAN_MOTION": 15.52544456, "ECCENTRICITY": 0.0003255, "INCLINATION": 70.0007, "RA_OF_ASC_NODE": 161.6999, "ARG_OF_PERICENTER": 273.6977, "MEAN_ANOMALY": 86.3838, "EPHEMERIS_TYPE": 0, "CLASSIFICATION_TYPE": "U", "NORAD_CAT_ID": 66830, "ELEMENT_SET_NO": 999, "REV_AT_EPOCH": 501, "BSTAR": 0.0015686, "MEAN_MOTION_DOT": 0.00097614, "MEAN_MOTION_DDOT": 0}, "tle": {"line1": "1 66830U 25280K   25360.13688282  .00097614  00000+0  15686-2 0  9998", "line2": "2 66830  70.0007 161.6999 0003255 273.6977  86.3838 15.52544456  5019"}}, "geometry": {"type": "Point", "coordinates": [14.781192825213205, -56.858782990109894]}}, {"type": "Feature", "properties": {"norad_id": 66831, "name": "STARLINK-35788", "group": "last-30-days", "lat": -58.31546737302965, "lon": 17.036602919999737, "alt_km": 413.9252340478215, "timestamp": "2025-12-26T10:30:48.975320+00:00", "meta": {"OBJECT_NAME": "STARLINK-35788", "OBJECT_ID": "2025-280L", "EPOCH": "2025-12-26T03:16:37.120800", "MEAN_MOTION": 15.52536059, "ECCENTRICITY": 0.0003046, "INCLINATION": 70.0005, "RA_OF_ASC_NODE": 161.6994, "ARG_OF_PERICENTER": 276.356, "MEAN_ANOMALY": 83.7279, "EPHEMERIS_TYPE": 0, "CLASSIFICATION_TYPE": "U", "NORAD_CAT_ID": 66831, "ELEMENT_SET_NO": 999, "REV_AT_EPOCH": 501, "BSTAR": 0.0011484, "MEAN_MOTION_DOT": 0.0007116, "MEAN_MOTION_DDOT": 0}, "tle": {"line1": "1 66831U 25280L   25360.13654075  .00071160  00000+0  11484-2 0  9992", "line2": "2 66831  70.0005 161.6994 0003046 276.3560  83.7279 15.52536059  5019"}}, "geometry": {"type": "Point", "coordinates": [17.036602919999737, -58.31546737302965]}}, {"type": "Feature", "properties": {"norad_id": 66832, "name": "STARLINK-35768", "group": "last-30-days", "lat": -59.75995573513814, "lon": 19.537189864993593, "alt_km": 413.5989180708657, "timestamp": "2025-12-26T10:30:48.975330+00:00", "meta": {"OBJECT_NAME": "STARLINK-35768", "OBJECT_ID": "2025-280M", "EPOCH": "2025-12-26T03:16:07.357728", "MEAN_MOTION": 15.52544106, "ECCENTRICITY": 0.0003354, "INCLINATION": 70.0007, "RA_OF_ASC_NODE": 161.6974, "ARG_OF_PERICENTER": 272.6525, "MEAN_ANOMALY": 87.4278, "EPHEMERIS_TYPE": 0, "CLASSIFICATION_TYPE": "U", "NORAD_CAT_ID": 66832, "ELEMENT_SET_NO": 999, "REV_AT_EPOCH": 501, "BSTAR": 0.0015219, "MEAN_MOTION_DOT": 0.00094669, "MEAN_MOTION_DDOT": 0}, "tle": {"line1": "1 66832U 25280M   25360.13619627  .00094669  00000+0  15219-2 0  9996", "line2": "2 66832  70.0007 161.6974 0003354 272.6525  87.4278 15.52544106  5014"}}, "geometry": {"type": "Point", "coordinates": [19.537189864993593, -59.75995573513814]}}, {"type": "Feature", "properties": {"norad_id": 66833, "name": "STARLINK-35858", "group": "last-30-days", "lat": -61.10215021892868, "lon": 22.157044825177216, "alt_km": 413.8581121948264, "timestamp": "2025-12-26T10:30:48.975340+00:00", "meta": {"OBJECT_NAME": "STARLINK-35858", "OBJECT_ID": "2025-280N", "EPOCH": "2025-12-26T04:00:01.998720", "MEAN_MOTION": 15.5246222, "ECCENTRICITY": 0.0003424, "INCLINATION": 70, "RA_OF_ASC_NODE": 161.6106, "ARG_OF_PERICENTER": 271.7154, "MEAN_ANOMALY": 260.7099, "EPHEMERIS_TYPE": 0, "CLASSIFICATION_TYPE": "U", "NORAD_CAT_ID": 66833, "ELEMENT_SET_NO": 999, "REV_AT_EPOCH": 505, "BSTAR": 0.00090642, "MEAN_MOTION_DOT": 0.00055876, "MEAN_MOTION_DDOT": 0}, "tle": {"line1": "1 66833U 25280N   25360.16668980  .00055876  00000+0  90642-3 0  9997", "line2": "2 66833  70.0000 161.6106 0003424 271.7154 260.7099 15.52462220  5058"}}, "geometry": {"type": "Point", "coordinates": [22.157044825177216, -61.10215021892868]}}, {"type": "Feature", "properties": {"norad_id": 66834, "name": "STARLINK-35840", "group": "last-30-days", "lat": -62.46165253475531, "lon": 25.17477132755678, "alt_km": 413.7747380062601, "timestamp": "2025-12-26T10:30:48.975353+00:00", "meta": {"OBJECT_NAME": "STARLINK-35840", "OBJECT_ID": "2025-280P", "EPOCH": "2025-12-26T03:15:07.996608", "MEAN_MOTION": 15.52558533, "ECCENTRICITY": 0.0003164, "INCLINATION": 70.0006, "RA_OF_ASC_NODE": 161.695, "ARG_OF_PERICENTER": 274.5966, "MEAN_ANOMALY": 85.486, "EPHEMERIS_TYPE": 0, "CLASSIFICATION_TYPE": "U", "NORAD_CAT_ID": 66834, "ELEMENT_SET_NO": 999, "REV_AT_EPOCH": 501, "BSTAR": 0.00073897, "MEAN_MOTION_DOT": 0.0004562, "MEAN_MOTION_DDOT": 0}, "tle": {"line1": "1 66834U 25280P   25360.13550922  .00045620  00000+0  73897-3 0  9990", "line2": "2 66834  70.0006 161.6950 0003164 274.5966  85.4860 15.52558533  5012"}}, "geometry": {"type": "Point", "coordinates": [25.17477132755678, -62.46165253475531]}}, {"type": "Feature", "properties": {"norad_id": 66835, "name": "STARLINK-35890", "group": "last-30-days", "lat": -63.706573552498114, "lon": 28.353168164203737, "alt_km": 413.7339196318826, "timestamp": "2025-12-26T10:30:48.975363+00:00", "meta": {"OBJECT_NAME": "STARLINK-35890", "OBJECT_ID": "2025-280Q", "EPOCH": "2025-12-26T03:14:38.490144", "MEAN_MOTION": 15.52544059, "ECCENTRICITY": 0.0003154, "INCLINATION": 70.0007, "RA_OF_ASC_NODE": 161.6932, "ARG_OF_PERICENTER": 274.4299, "MEAN_ANOMALY": 85.6528, "EPHEMERIS_TYPE": 0, "CLASSIFICATION_TYPE": "U", "NORAD_CAT_ID": 66835, "ELEMENT_SET_NO": 999, "REV_AT_EPOCH": 501, "BSTAR": 0.0014013, "MEAN_MOTION_DOT": 0.00087066, "MEAN_MOTION_DDOT": 0}, "tle": {"line1": "1 66835U 25280Q   25360.13516771  .00087066  00000+0  14013-2 0  9999", "line2": "2 66835  70.0007 161.6932 0003154 274.4299  85.6528 15.52544059  5012"}}, "geometry": {"type": "Point", "coordinates": [28.353168164203737, -63.706573552498114]}}, {"type": "Feature", "properties": {"norad_id": 66836, "name": "STARLINK-35838", "group": "last-30-days", "lat": -64.8767876379375, "lon": 31.820545574021438, "alt_km": 413.62828485383216, "timestamp": "2025-12-26T10:30:48.975392+00:00", "meta": {"OBJECT_NAME": "STARLINK-35838", "OBJECT_ID": "2025-280R", "EPOCH": "2025-12-26T03:14:08.875680", "MEAN_MOTION": 15.52541881, "ECCENTRICITY": 0.0003342, "INCLINATION": 70.0008, "RA_OF_ASC_NODE": 161.6916, "ARG_OF_PERICENTER": 275.7935, "MEAN_ANOMALY": 84.2871, "EPHEMERIS_TYPE": 0, "CLASSIFICATION_TYPE": "U", "NORAD_CAT_ID": 66836, "ELEMENT_SET_NO": 999, "REV_AT_EPOCH": 501, "BSTAR": 0.0013995, "MEAN_MOTION_DOT": 0.00086951, "MEAN_MOTION_DDOT": 0}, "tle": {"line1": "1 66836U 25280R   25360.13482495  .00086951  00000+0  13995-2 0  9995", "line2": "2 66836  70.0008 161.6916 0003342 275.7935  84.2871 15.52541881  5012"}}, "geometry": {"type": "Point", "coordinates": [31.820545574021438, -64.8767876379375]}}, {"type": "Feature", "properties": {"norad_id": 66837, "name": "STARLINK-35729", "group": "last-30-days", "lat": -65.95412090144104, "lon": 35.57269243045308, "alt_km": 413.7216236562281, "timestamp": "2025-12-26T10:30:48.975409+00:00", "meta": {"OBJECT_NAME": "STARLINK-35729", "OBJECT_ID": "2025-280S", "EPOCH": "2025-12-26T03:13:39.165312", "MEAN_MOTION": 15.52530766, "ECCENTRICITY": 0.0003302, "INCLINATION": 70.0009, "RA_OF_ASC_NODE": 161.69, "ARG_OF_PERICENTER": 275.0053, "MEAN_ANOMALY": 85.0757, "EPHEMERIS_TYPE": 0, "CLASSIFICATION_TYPE": "U", "NORAD_CAT_ID": 66837, "ELEMENT_SET_NO": 999, "REV_AT_EPOCH": 501, "BSTAR": 0.00089479, "MEAN_MOTION_DOT": 0.00055288, "MEAN_MOTION_DDOT": 0}, "tle": {"line1": "1 66837U 25280S   25360.13448108  .00055288  00000+0  89479-3 0  9999", "line2": "2 66837  70.0009 161.6900 0003302 275.0053  85.0757 15.52530766  5019"}}, "geometry": {"type": "Point", "coordinates": [35.57269243045308, -65.95412090144104]}}, {"type": "Feature", "properties": {"norad_id": 66838, "name": "STARLINK-35886", "group": "last-30-days", "lat": -67.81296586994124, "lon": 44.11421159508292, "alt_km": 414.12729570050215, "timestamp": "2025-12-26T10:30:48.975423+00:00", "meta": {"OBJECT_NAME": "STARLINK-35886", "OBJECT_ID": "2025-280T", "EPOCH": "2025-12-26T03:12:40.198176", "MEAN_MOTION": 15.5255474, "ECCENTRICITY": 0.0003099, "INCLINATION": 70.0009, "RA_OF_ASC_NODE": 161.6875, "ARG_OF_PERICENTER": 298.9195, "MEAN_ANOMALY": 61.1681, "EPHEMERIS_TYPE": 0, "CLASSIFICATION_TYPE": "U", "NORAD_CAT_ID": 66838, "ELEMENT_SET_NO": 999, "REV_AT_EPOCH": 501, "BSTAR": 0.0010651, "MEAN_MOTION_DOT": 0.00065985, "MEAN_MOTION_DDOT": 0}, "tle": {"line1": "1 66838U 25280T   25360.13379859  .00065985  00000+0  10651-2 0  9996", "line2": "2 66838  70.0009 161.6875 0003099 298.9195  61.1681 15.52554740  5014"}}, "geometry": {"type": "Point", "coordinates": [44.11421159508292, -67.81296586994124]}}]}